start=new Date('2023-04-24T00:00:00.000Z').valueOf();
sats=[{"PERIAPSIS":"539.017","SITE":"AFETR","TLE_LINE1":"1 52877U 22062AZ  23113.23128518  .00004120  00000-0  27668-3 0  9990","INCLINATION":"53.2162","MEAN_ANOMALY":"261.8031","FILE":"3892688","OBJECT_NAME":"STARLINK-4214","EPHEMERIS_TYPE":"0","MEAN_MOTION_DDOT":"0.0000000000000","MEAN_MOTION":"15.08854087","PERIOD":"95.437","BSTAR":"0.00027668000000","NORAD_CAT_ID":"52877","ECCENTRICITY":"0.00009910","CENTER_NAME":"EARTH","ARG_OF_PERICENTER":"98.3074","MEAN_MOTION_DOT":"0.00004120","CLASSIFICATION_TYPE":"U","GP_ID":"230631799","RA_OF_ASC_NODE":"54.3031","SEMIMAJOR_AXIS":"6917.837","DECAY_DATE":null,"OBJECT_ID":"2022-062AZ","APOAPSIS":"540.388","OBJECT_TYPE":"PAYLOAD","REF_FRAME":"TEME","EPOCH":"2023-04-23T05:33:03.039552","TLE_LINE2":"2 52877  53.2162  54.3031 0000991  98.3074 261.8031 15.08854087 47330","ELEMENT_SET_NO":"999","RCS_SIZE":"LARGE","LAUNCH_DATE":"2022-06-17","COUNTRY_CODE":"US","MEAN_ELEMENT_THEORY":"SGP4","TIME_SYSTEM":"UTC","REV_AT_EPOCH":"4733"},{"APOAPSIS":"540.400","OBJECT_TYPE":"PAYLOAD","OBJECT_ID":"2022-062BA","DECAY_DATE":null,"SEMIMAJOR_AXIS":"6917.858","RA_OF_ASC_NODE":"54.7865","CLASSIFICATION_TYPE":"U","GP_ID":"230661741","MEAN_MOTION_DOT":"0.00000745","ARG_OF_PERICENTER":"122.3085","NORAD_CAT_ID":"52878","ECCENTRICITY":"0.00009780","CENTER_NAME":"EARTH","BSTAR":"0.00006487900000","PERIOD":"95.437","MEAN_MOTION":"15.08847278","MEAN_MOTION_DDOT":"0.0000000000000","EPHEMERIS_TYPE":"0","FILE":"3892831","OBJECT_NAME":"STARLINK-4171","TLE_LINE1":"1 52878U 22062BA  23113.12088477  .00000745  00000-0  64879-4 0  9993","INCLINATION":"53.2183","SITE":"AFETR","MEAN_ANOMALY":"237.8002","PERIAPSIS":"539.047","TIME_SYSTEM":"UTC","REV_AT_EPOCH":"4731","MEAN_ELEMENT_THEORY":"SGP4","LAUNCH_DATE":"2022-06-17","COUNTRY_CODE":"US","RCS_SIZE":"LARGE","TLE_LINE2":"2 52878  53.2183  54.7865 0000978 122.3085 237.8002 15.08847278 47311","EPOCH":"2023-04-23T02:54:04.444128","ELEMENT_SET_NO":"999","REF_FRAME":"TEME"},{"MEAN_ANOMALY":"261.3606","TLE_LINE1":"1 52879U 22062BB  23113.22024924  .00002179  00000-0  15492-3 0  9991","SITE":"AFETR","INCLINATION":"53.2172","PERIAPSIS":"538.746","MEAN_MOTION_DDOT":"0.0000000000000","EPHEMERIS_TYPE":"0","FILE":"3892688","OBJECT_NAME":"STARLINK-4139","PERIOD":"95.437","MEAN_MOTION":"15.08846805","ECCENTRICITY":"0.00014150","CENTER_NAME":"EARTH","NORAD_CAT_ID":"52879","BSTAR":"0.00015492000000","GP_ID":"230630798","CLASSIFICATION_TYPE":"U","ARG_OF_PERICENTER":"98.7546","MEAN_MOTION_DOT":"0.00002179","SEMIMAJOR_AXIS":"6917.860","RA_OF_ASC_NODE":"54.3491","OBJECT_TYPE":"PAYLOAD","APOAPSIS":"540.703","DECAY_DATE":null,"OBJECT_ID":"2022-062BB","REF_FRAME":"TEME","ELEMENT_SET_NO":"999","TLE_LINE2":"2 52879  53.2172  54.3491 0001415  98.7546 261.3606 15.08846805 47335","EPOCH":"2023-04-23T05:17:09.534336","RCS_SIZE":"LARGE","COUNTRY_CODE":"US","LAUNCH_DATE":"2022-06-17","MEAN_ELEMENT_THEORY":"SGP4","REV_AT_EPOCH":"4733","TIME_SYSTEM":"UTC"},{"LAUNCH_DATE":"2022-06-17","COUNTRY_CODE":"US","RCS_SIZE":"LARGE","ELEMENT_SET_NO":"999","EPOCH":"2023-04-23T05:22:27.316992","TLE_LINE2":"2 52880  53.2166  54.3286 0001078  87.5224 272.5892 15.08847953 47332","REF_FRAME":"TEME","TIME_SYSTEM":"UTC","REV_AT_EPOCH":"4733","MEAN_ELEMENT_THEORY":"SGP4","PERIOD":"95.437","MEAN_MOTION":"15.08847953","MEAN_MOTION_DDOT":"0.0000000000000","EPHEMERIS_TYPE":"0","FILE":"3892688","OBJECT_NAME":"STARLINK-4186","MEAN_ANOMALY":"272.5892","SITE":"AFETR","TLE_LINE1":"1 52880U 22062BC  23113.22392728  .00002765  00000-0  19172-3 0  9993","INCLINATION":"53.2166","PERIAPSIS":"538.975","OBJECT_TYPE":"PAYLOAD","APOAPSIS":"540.467","OBJECT_ID":"2022-062BC","DECAY_DATE":null,"SEMIMAJOR_AXIS":"6917.856","RA_OF_ASC_NODE":"54.3286","GP_ID":"230632047","CLASSIFICATION_TYPE":"U","MEAN_MOTION_DOT":"0.00002765","ARG_OF_PERICENTER":"87.5224","ECCENTRICITY":"0.00010780","CENTER_NAME":"EARTH","NORAD_CAT_ID":"52880","BSTAR":"0.00019172000000"},{"MEAN_ELEMENT_THEORY":"SGP4","TIME_SYSTEM":"UTC","REV_AT_EPOCH":"4733","ELEMENT_SET_NO":"999","EPOCH":"2023-04-23T05:27:45.270720","TLE_LINE2":"2 52881  53.2167  54.3147 0001364  94.8546 265.2602 15.08850728 47338","REF_FRAME":"TEME","LAUNCH_DATE":"2022-06-17","COUNTRY_CODE":"US","RCS_SIZE":"LARGE","ARG_OF_PERICENTER":"94.8546","MEAN_MOTION_DOT":"0.00002278","GP_ID":"230632299","CLASSIFICATION_TYPE":"U","BSTAR":"0.00016114000000","CENTER_NAME":"EARTH","ECCENTRICITY":"0.00013640","NORAD_CAT_ID":"52881","OBJECT_ID":"2022-062BD","DECAY_DATE":null,"OBJECT_TYPE":"PAYLOAD","APOAPSIS":"540.656","RA_OF_ASC_NODE":"54.3147","SEMIMAJOR_AXIS":"6917.848","OBJECT_NAME":"STARLINK-4192","FILE":"3892688","EPHEMERIS_TYPE":"0","MEAN_MOTION_DDOT":"0.0000000000000","PERIAPSIS":"538.769","MEAN_ANOMALY":"265.2602","INCLINATION":"53.2167","TLE_LINE1":"1 52881U 22062BD  23113.22760730  .00002278  00000-0  16114-3 0  9998","SITE":"AFETR","MEAN_MOTION":"15.08850728","PERIOD":"95.437"},{"MEAN_ELEMENT_THEORY":"SGP4","TIME_SYSTEM":"UTC","REV_AT_EPOCH":"130","REF_FRAME":"TEME","ELEMENT_SET_NO":"999","TLE_LINE2":"2 52882  53.2169  51.2370 0001549  91.0064 106.4356 15.07212861  1302","EPOCH":"2023-04-23T22:00:00.999936","RCS_SIZE":"LARGE","LAUNCH_DATE":"2022-06-17","COUNTRY_CODE":"US","BSTAR":"-0.00118980000000","ECCENTRICITY":"0.00015490","CENTER_NAME":"EARTH","NORAD_CAT_ID":"52882","ARG_OF_PERICENTER":"91.0064","MEAN_MOTION_DOT":"-0.00018352","GP_ID":"230661241","CLASSIFICATION_TYPE":"U","RA_OF_ASC_NODE":"51.2370","SEMIMAJOR_AXIS":"6922.858","OBJECT_ID":"2022-062BE","DECAY_DATE":null,"OBJECT_TYPE":"PAYLOAD","APOAPSIS":"545.796","PERIAPSIS":"543.651","MEAN_ANOMALY":"106.4356","TLE_LINE1":"1 52882U 22062BE  23113.91667824 -.00018352  00000-0 -11898-2 0  9990","INCLINATION":"53.2169","SITE":"AFETR","FILE":"3892831","OBJECT_NAME":"STARLINK-4181","EPHEMERIS_TYPE":"0","MEAN_MOTION_DDOT":"0.0000000000000","MEAN_MOTION":"15.07212861","PERIOD":"95.541"},{"ELEMENT_SET_NO":"999","TLE_LINE2":"2 52986  53.2163 133.4734 0001391  86.9182 273.1969 15.08835907 44130","EPOCH":"2023-04-23T09:58:01.464672","REF_FRAME":"TEME","LAUNCH_DATE":"2022-07-07","COUNTRY_CODE":"US","RCS_SIZE":"LARGE","MEAN_ELEMENT_THEORY":"SGP4","REV_AT_EPOCH":"4413","TIME_SYSTEM":"UTC","MEAN_MOTION_DDOT":"0.0000000000000","FILE":"3892688","OBJECT_NAME":"STARLINK-4260","EPHEMERIS_TYPE":"0","MEAN_ANOMALY":"273.1969","SITE":"AFETR","TLE_LINE1":"1 52986U 22076A   23113.41529473  .00001668  00000-0  12288-3 0  9997","INCLINATION":"53.2163","PERIAPSIS":"538.796","PERIOD":"95.438","MEAN_MOTION":"15.08835907","GP_ID":"230630557","CLASSIFICATION_TYPE":"U","ARG_OF_PERICENTER":"86.9182","MEAN_MOTION_DOT":"0.00001668","CENTER_NAME":"EARTH","ECCENTRICITY":"0.00013910","NORAD_CAT_ID":"52986","BSTAR":"0.00012288000000","APOAPSIS":"540.720","OBJECT_TYPE":"PAYLOAD","OBJECT_ID":"2022-076A","DECAY_DATE":null,"SEMIMAJOR_AXIS":"6917.893","RA_OF_ASC_NODE":"133.4734"},{"ELEMENT_SET_NO":"999","TLE_LINE2":"2 52987  53.2149 141.8054 0001296  97.8480 262.2659 15.08846335 44052","EPOCH":"2023-04-23T18:51:54.751968","REF_FRAME":"TEME","COUNTRY_CODE":"US","LAUNCH_DATE":"2022-07-07","RCS_SIZE":"LARGE","MEAN_ELEMENT_THEORY":"SGP4","TIME_SYSTEM":"UTC","REV_AT_EPOCH":"4405","OBJECT_NAME":"STARLINK-4259","FILE":"3892831","EPHEMERIS_TYPE":"0","MEAN_MOTION_DDOT":"0.0000000000000","PERIAPSIS":"538.829","MEAN_ANOMALY":"262.2659","SITE":"AFETR","TLE_LINE1":"1 52987U 22076B   23113.78605037  .00003828  00000-0  25842-3 0  9999","INCLINATION":"53.2149","MEAN_MOTION":"15.08846335","PERIOD":"95.437","ARG_OF_PERICENTER":"97.8480","MEAN_MOTION_DOT":"0.00003828","GP_ID":"230661996","CLASSIFICATION_TYPE":"U","BSTAR":"0.00025842000000","CENTER_NAME":"EARTH","ECCENTRICITY":"0.00012960","NORAD_CAT_ID":"52987","OBJECT_ID":"2022-076B","DECAY_DATE":null,"APOAPSIS":"540.623","OBJECT_TYPE":"PAYLOAD","RA_OF_ASC_NODE":"141.8054","SEMIMAJOR_AXIS":"6917.861"},{"EPHEMERIS_TYPE":"0","FILE":"3892688","OBJECT_NAME":"STARLINK-4291","MEAN_MOTION_DDOT":"0.0000000000000","PERIAPSIS":"538.726","INCLINATION":"53.2150","TLE_LINE1":"1 52988U 22076C   23113.41161277  .00000462  00000-0  47120-4 0  9998","SITE":"AFETR","MEAN_ANOMALY":"280.0214","MEAN_MOTION":"15.08836639","PERIOD":"95.438","ARG_OF_PERICENTER":"80.0946","MEAN_MOTION_DOT":"0.00000462","CLASSIFICATION_TYPE":"U","GP_ID":"230632056","BSTAR":"0.00004712000000","NORAD_CAT_ID":"52988","CENTER_NAME":"EARTH","ECCENTRICITY":"0.00014880","OBJECT_ID":"2022-076C","DECAY_DATE":null,"APOAPSIS":"540.785","OBJECT_TYPE":"PAYLOAD","RA_OF_ASC_NODE":"133.4888","SEMIMAJOR_AXIS":"6917.891","TLE_LINE2":"2 52988  53.2150 133.4888 0001488  80.0946 280.0214 15.08836639 44131","EPOCH":"2023-04-23T09:52:43.343328","ELEMENT_SET_NO":"999","REF_FRAME":"TEME","COUNTRY_CODE":"US","LAUNCH_DATE":"2022-07-07","RCS_SIZE":"LARGE","MEAN_ELEMENT_THEORY":"SGP4","REV_AT_EPOCH":"4413","TIME_SYSTEM":"UTC"},{"ARG_OF_PERICENTER":"88.0648","MEAN_MOTION_DOT":"0.00001313","GP_ID":"230660999","CLASSIFICATION_TYPE":"U","BSTAR":"0.00010057000000","ECCENTRICITY":"0.00011270","CENTER_NAME":"EARTH","NORAD_CAT_ID":"52989","OBJECT_ID":"2022-076D","DECAY_DATE":null,"OBJECT_TYPE":"PAYLOAD","APOAPSIS":"540.527","RA_OF_ASC_NODE":"141.8244","SEMIMAJOR_AXIS":"6917.882","FILE":"3892831","OBJECT_NAME":"STARLINK-4293","EPHEMERIS_TYPE":"0","MEAN_MOTION_DDOT":"0.0000000000000","PERIAPSIS":"538.967","MEAN_ANOMALY":"272.0474","TLE_LINE1":"1 52989U 22076D   23113.78237368  .00001313  00000-0  10057-3 0  9998","INCLINATION":"53.2152","SITE":"AFETR","MEAN_MOTION":"15.08839469","PERIOD":"95.438","MEAN_ELEMENT_THEORY":"SGP4","REV_AT_EPOCH":"4405","TIME_SYSTEM":"UTC","ELEMENT_SET_NO":"999","TLE_LINE2":"2 52989  53.2152 141.8244 0001127  88.0648 272.0474 15.08839469 44054","EPOCH":"2023-04-23T18:46:37.085952","REF_FRAME":"TEME","LAUNCH_DATE":"2022-07-07","COUNTRY_CODE":"US","RCS_SIZE":"LARGE"}];
